{
    "links": {
        "self": "http://www.neowsapp.com/rest/v1/neo/3435538?api_key=iIulBulltgU6a56xZRHN4H3l9WmuAYTsLGpBGhQ2"
    },
    "id": "3435538",
    "neo_reference_id": "3435538",
    "name": "(2008 UZ201)",
    "designation": "2008 UZ201",
    "nasa_jpl_url": "http://ssd.jpl.nasa.gov/sbdb.cgi?sstr=3435538",
    "absolute_magnitude_h": 21.8,
    "estimated_diameter": {
        "kilometers": {
            "estimated_diameter_min": 0.1160259082,
            "estimated_diameter_max": 0.2594418179
        },
        "meters": {
            "estimated_diameter_min": 116.0259082094,
            "estimated_diameter_max": 259.4418179074
        },
        "miles": {
            "estimated_diameter_min": 0.0720951346,
            "estimated_diameter_max": 0.1612096218
        },
        "feet": {
            "estimated_diameter_min": 380.6624406898,
            "estimated_diameter_max": 851.1870938635
        }
    },
    "is_potentially_hazardous_asteroid": false,
    "close_approach_data": [
        {
            "close_approach_date": "2008-09-20",
            "close_approach_date_full": "2008-Sep-20 12:13",
            "epoch_date_close_approach": 1221912780000,
            "relative_velocity": {
                "kilometers_per_second": "5.1074762341",
                "kilometers_per_hour": "18386.9144427492",
                "miles_per_hour": "11424.9135880516"
            },
            "miss_distance": {
                "astronomical": "0.2061666927",
                "lunar": "80.1988434603",
                "kilometers": "30842098.092864549",
                "miles": "19164391.0902828162"
            },
            "orbiting_body": "Earth"
        }
    ],
    "orbital_data": {
        "orbit_id": "12",
        "orbit_determination_date": "2017-04-06 09:02:20",
        "first_observation_date": "2008-10-25",
        "last_observation_date": "2008-12-05",
        "data_arc_in_days": 41,
        "observations_used": 53,
        "orbit_uncertainty": "7",
        "minimum_orbit_intersection": ".177313",
        "jupiter_tisserand_invariant": "3.394",
        "epoch_osculation": "2459000.5",
        "eccentricity": ".4973410732444882",
        "semi_major_axis": "2.328551501948611",
        "inclination": "2.985401772692805",
        "ascending_node_longitude": "80.91949008801856",
        "orbital_period": "1297.858060674496",
        "perihelion_distance": "1.170467198864424",
        "perihelion_argument": "283.1412662154924",
        "aphelion_distance": "3.486635805032799",
        "perihelion_time": "2458619.417003967991",
        "mean_anomaly": "105.7048399423785",
        "mean_motion": ".2773801010357853",
        "equinox": "J2000",
        "orbit_class": {
            "orbit_class_type": "AMO",
            "orbit_class_description": "Near-Earth asteroid orbits similar to that of 1221 Amor",
            "orbit_class_range": "1.017 AU < q (perihelion) < 1.3 AU"
        }
    },
    "is_sentry_object": false
}